STARLINK-30236          
1 57300U 23096L   24110.09293583  .00012374  00000+0  92927-3 0  9990
2 57300  43.0029  10.2794 0002158 236.1631 123.9006 15.02542704 42799
STARLINK-30201          
1 57301U 23096M   24110.15608584  .00011402  00000+0  85751-3 0  9997
2 57301  43.0023   9.8953 0001303 255.3250 104.7448 15.02545617 42799
STARLINK-30233          
1 57302U 23096N   24110.08628819  .00013774  00000+0  10327-2 0  9993
2 57302  43.0043  10.2024 0001840 257.5130 102.5507 15.02536420 42798
STARLINK-30232          
1 57303U 23096P   24110.08296644  .00001203  00000+0  10415-3 0  9994
2 57303  43.0052  10.2188 0001574 274.0858  85.9805 15.02518623 42795
STARLINK-30211          
1 57304U 23096Q   24110.07962435 -.00003620  00000+0 -25309-3 0  9997
2 57304  43.0053  10.1682 0001859 273.7635  86.2995 15.02526583 42798
STARLINK-30177          
1 57305U 23096R   24110.14276714  .00005573  00000+0  42730-3 0  9998
2 57305  43.0033   9.7898 0001404 255.5765 104.4921 15.02534199 42792
STARLINK-30200          
1 57306U 23096S   24110.08073611  .00000668  00000+0  64536-4 0  9992
2 57306  43.0047  10.1775 0001257 255.7433 104.3270 15.02521421 42798
STARLINK-30209          
1 57307U 23096T   24109.13892807 -.00000846  00000+0 -47546-4 0  9995
2 57307  43.0013  15.1456 0002115 224.6969 135.3703 15.02537857 42847
STARLINK-30194          
1 57308U 23096U   24110.13278791  .00024591  00000+0  18272-2 0  9991
2 57308  43.0042   9.7180 0001645 242.1376 117.9300 15.02575001 42793
STARLINK-30163          
1 57309U 23096V   24110.12945772  .00025489  00000+0  18958-2 0  9999
2 57309  43.0034   9.6954 0001869 256.0969 103.9665 15.02520704 42950
STARLINK-30184          
1 57310U 23096W   24110.01035524  .00025918  00000+0  19272-2 0  9991
2 57310  43.0039 344.6545 0000943 355.7899   4.2935 15.02524716 43081
STARLINK-30175          
1 57311U 23096X   24110.12608559  .00018743  00000+0  14005-2 0  9995
2 57311  43.0044   9.6700 0001454 268.8843  91.1833 15.02491924 42906
STARLINK-6290           
1 57328U 23099A   24109.98829825  .00007910  00000+0  59989-3 0  9994
2 57328  43.0034  36.9615 0001229 271.0834  88.9868 15.02542503 43102
STARLINK-6138           
1 57329U 23099B   24110.17773798  .00004819  00000+0  37151-3 0  9997
2 57329  43.0071  35.7928 0001359 229.2807 130.7917 15.02540688 43133
STARLINK-6212           
1 57330U 23099C   24109.78553551 -.00001508  00000+0 -96562-4 0  9993
2 57330  43.0069  38.0188 0001534 258.6821 101.3849 15.02530490 43074
STARLINK-6234           
1 57331U 23099D   24110.18329727  .00006480  00000+0  49427-3 0  9995
2 57331  43.0047  35.8410 0001263 264.2600  95.8098 15.02537708 42870
STARLINK-5831           
1 57332U 23099E   24110.18105701  .00001103  00000+0  96655-4 0  9993
2 57332  43.0041  35.8207 0000808 229.2202 130.8570 15.02548236 43135
STARLINK-5585           
1 57333U 23099F   24109.18278107  .00000263  00000+0  34575-4 0  9992
2 57333  43.0056  41.2347 0002225 252.3187 107.7412 15.02535659 42246
STARLINK-5589           
1 57334U 23099G   24110.04143006  .00001150  00000+0  10010-3 0  9992
2 57334  43.0050  36.4898 0001602 239.3271 120.7414 15.02561788 43009
STARLINK-6316           
1 57335U 23099H   24110.16331125  .00002681  00000+0  21351-3 0  9997
2 57335  43.0046  35.6933 0001524 269.4977  90.5691 15.02529730 43132
STARLINK-6320           
1 57336U 23099J   24110.19980603  .00001223  00000+0  10553-3 0  9995
2 57336  43.0031  35.0877 0001284 265.9900  94.0796 15.02550494 43145
STARLINK-6322           
1 57337U 23099K   24109.83868622 -.00000269  00000+0 -48205-5 0  9999
2 57337  43.0096  37.5515 0002984 266.4462  93.6039 15.02526165 42344
STARLINK-6374           
1 57338U 23099L   24110.16664356  .00004657  00000+0  35959-3 0  9999
2 57338  43.0028  35.7122 0001498 258.9463 101.1211 15.02533966 43132
STARLINK-6332           
1 57339U 23099M   24109.84089645  .00000791  00000+0  73629-4 0  9997
2 57339  43.0043  37.5658 0001219 254.7286 105.3421 15.02550392 43087
STARLINK-6321           
1 57340U 23099N   24110.15441870 -.00000305  00000+0 -74800-5 0  9993
2 57340  43.0047  35.6199 0001345 255.9372 104.1321 15.02547815 43139
STARLINK-6377           
1 57341U 23099P   24110.15998309  .00011872  00000+0  89225-3 0  9992
2 57341  43.0043  35.6623 0001287 245.9582 114.1125 15.02543987 43099
STARLINK-6375           
1 57342U 23099Q   24110.27074074  .00005113  00000+0  39330-3 0  9993
2 57342  43.0039  34.7743 0001497 251.2224 108.8456 15.02538157 43151
STARLINK-6379           
1 57343U 23099R   24110.15665660  .00005551  00000+0  42569-3 0  9992
2 57343  43.0031  35.6444 0001328 271.5677  88.5013 15.02534593 43133
STARLINK-6380           
1 57344U 23099S   24110.14776446  .00008787  00000+0  66454-3 0  9990
2 57344  43.0054  35.5686 0001797 254.8780 105.1863 15.02547030 43134
STARLINK-6373           
1 57345U 23099T   24109.22041340  .00000803  00000+0  74559-4 0  9993
2 57345  43.0052  40.6530 0001470 266.9398  93.1276 15.02526356 42259
STARLINK-6359           
1 57346U 23099U   24110.19759752  .00015645  00000+0  11701-2 0  9993
2 57346  43.0021  35.0882 0000776 292.6825  67.3935 15.02552250 43149
STARLINK-6378           
1 57347U 23099V   24110.14332805  .00004503  00000+0  34816-3 0  9999
2 57347  43.0038  35.5380 0001202 269.3421  90.7283 15.02541710 43138
STARLINK-6372           
1 57348U 23099W   24110.12557671  .00012542  00000+0  94192-3 0  9993
2 57348  43.0037  35.4022 0001529 265.3155  94.7513 15.02533261 43134
STARLINK-6376           
1 57349U 23099X   24110.19427383  .00000490  00000+0  51346-4 0  9991
2 57349  43.0038  35.0616 0001170 257.2957 102.7754 15.02529730 43147
STARLINK-6362           
1 57350U 23099Y   24110.13371799  .00000971  00000+0  86949-4 0  9997
2 57350  43.0047  23.3016 0001432 271.0897  88.9781 15.02525315 43275
STARLINK-6331           
1 57351U 23099Z   24110.19091109  .00007624  00000+0  57840-3 0  9997
2 57351  43.0058  35.0346 0001440 262.2597  97.8082 15.02562756 43196
STARLINK-6297           
1 57352U 23099AA  24110.12705960  .00004132  00000+0  32082-3 0  9990
2 57352  43.0064  23.2459 0001269 259.4577 100.6122 15.02530187 43273
STARLINK-6324           
1 57353U 23099AB  24110.18872339  .00003258  00000+0  25621-3 0  9991
2 57353  43.0036  35.0171 0001658 254.7701 105.2959 15.02529488 43141
STARLINK-6293           
1 57354U 23099AC  24109.98519314  .00001841  00000+0  15122-3 0  9990
2 57354  43.0048  23.9032 0001570 323.3971  36.6764 15.02558925 43253
STARLINK-6276           
1 57355U 23099AD  24110.13038965  .00002137  00000+0  17329-3 0  9998
2 57355  43.0050  23.2745 0001472 254.1087 105.9593 15.02527760 43276
STARLINK-6355           
1 57356U 23099AE  24109.98410097  .00001192  00000+0  10327-3 0  9991
2 57356  43.0044  23.8956 0000931 269.2806  90.7930 15.02542968 43155
STARLINK-5600           
1 57357U 23099AF  24110.12485482  .00030404  00000+0  22546-2 0  9993
2 57357  43.0041  23.2330 0001863 257.2062 102.8572 15.02560032 43169
STARLINK-6299           
1 57358U 23099AG  24110.11151643  .00006148  00000+0  46998-3 0  9998
2 57358  43.0075  23.1278 0003016 240.6457 119.4084 15.02521676 43278
STARLINK-6347           
1 57359U 23099AH  24110.12816439  .00001157  00000+0  10074-3 0  9992
2 57359  43.0050  23.2570 0001713 272.3432  87.7215 15.02526762 43279
STARLINK-6348           
1 57360U 23099AJ  24110.17133855  .00018277  00000+0  13641-2 0  9996
2 57360  43.0043  22.7186 0001524 264.5776  95.4892 15.02548166 43284
STARLINK-6340           
1 57361U 23099AK  24109.98077574  .00002259  00000+0  18219-3 0  9999
2 57361  43.0039  23.8729 0001261 303.1642  56.9079 15.02542990 43250
STARLINK-6343           
1 57362U 23099AL  24110.16800322  .00021128  00000+0  15735-2 0  9992
2 57362  43.0034  22.6939 0001124 269.6222  90.4491 15.02556838 43284
STARLINK-6356           
1 57363U 23099AM  24109.97522958  .00001714  00000+0  14196-3 0  9996
2 57363  43.0051  23.8249 0001828 225.3533 134.7160 15.02531291 43254
STARLINK-6338           
1 57364U 23099AN  24110.16686683 -.00000232  00000+0 -21206-5 0  9994
2 57364  43.0053  22.6838 0001233 259.0708 100.9995 15.02566267 43281
STARLINK-5007           
1 57365U 23099AP  24109.15973470  .00029105  00000+0  21627-2 0  9997
2 57365  43.0042  28.0228 0001447 291.4636  68.6052 15.02500460 42398
STARLINK-6174           
1 57366U 23099AQ  24109.16306123  .00008657  00000+0  65525-3 0  9999
2 57366  43.0045  28.0509 0001116 277.1804  82.8912 15.02530965 42391
STARLINK-6215           
1 57367U 23099AR  24110.08735423  .00010982  00000+0  82692-3 0  9990
2 57367  43.0041   9.9205 0001715 274.0031  86.0615 15.02529608 43425
STARLINK-6218           
1 57368U 23099AS  24110.15468883  .00008643  00000+0  65403-3 0  9994
2 57368  43.0040  22.5922 0001458 265.2520  94.8155 15.02538560 43288
STARLINK-6168           
1 57369U 23099AT  24110.16355880  .00005318  00000+0  40844-3 0  9996
2 57369  43.0043  22.6571 0001695 253.5430 106.5226 15.02539064 43231
STARLINK-5353           
1 57370U 23099AU  24110.14800847 -.00002031  00000+0 -13531-3 0  9998
2 57370  43.0089  22.5353 0002076 251.1894 108.8724 15.02538588 43173
STARLINK-6032           
1 57371U 23099AV  24110.16134003  .00009220  00000+0  69652-3 0  9995
2 57371  43.0038  22.6386 0001485 244.8490 115.2199 15.02547463 43236
STARLINK-5975           
1 57372U 23099AW  24110.14024908  .00036922  00000+0  27304-2 0  9992
2 57372  43.0035  22.4748 0001153 272.2529  87.8181 15.02584739 43078
STARLINK-6370           
1 57373U 23099AX  24109.88544252  .00012477  00000+0  93670-3 0  9990
2 57373  43.0036  24.0109 0001437 258.5540 101.5141 15.02550302 42500
STARLINK-6369           
1 57374U 23099AY  24110.11843738 -.00000988  00000+0 -58066-4 0  9997
2 57374  43.0049  10.1637 0001617 263.9981  96.0677 15.02523412 43422
